{"type":"FeatureCollection","features":[{"type":"Feature","properties":{"code":"24040","nom":"Beynac et Cazenac","epci":"CCSPN"},"geometry":{"type":"Polygon","coordinates":[[[1.1269,44.861981],[1.1699,44.861981],[1.1914,44.836],[1.1699,44.810019],[1.1269,44.810019],[1.1054,44.836],[1.1269,44.861981]]]}},{"type":"Feature","properties":{"code":"24252","nom":"Marcillac St Quentin","epci":"CCSPN"},"geometry":{"type":"Polygon","coordinates":[[[1.1576,44.902081],[1.2006,44.902081],[1.2221,44.8761],[1.2006,44.850119],[1.1576,44.850119],[1.1361,44.8761],[1.1576,44.902081]]]}},{"type":"Feature","properties":{"code":"24255","nom":"Marquay","epci":"CCSPN"},"geometry":{"type":"Polygon","coordinates":[[[1.1029,44.894481],[1.1459,44.894481],[1.1674,44.8685],[1.1459,44.842519],[1.1029,44.842519],[1.0814,44.8685],[1.1029,44.894481]]]}},{"type":"Feature","properties":{"code":"24341","nom":"Proissans","epci":"CCSPN"},"geometry":{"type":"Polygon","coordinates":[[[1.1918,44.926181],[1.2348,44.926181],[1.2563,44.9002],[1.2348,44.874219],[1.1918,44.874219],[1.1703,44.9002],[1.1918,44.926181]]]}},{"type":"Feature","properties":{"code":"24355","nom":"Roque Gageac (La)","epci":"CCSPN"},"geometry":{"type":"Polygon","coordinates":[[[1.1466,44.851881],[1.1896,44.851881],[1.2111,44.8259],[1.1896,44.799919],[1.1466,44.799919],[1.1251,44.8259],[1.1466,44.851881]]]}},{"type":"Feature","properties":{"code":"24366","nom":"Saint André d'Allas","epci":"CCSPN"},"geometry":{"type":"Polygon","coordinates":[[[1.0652,44.898081],[1.1082,44.898081],[1.1297,44.8721],[1.1082,44.846119],[1.0652,44.846119],[1.0437,44.8721],[1.0652,44.898081]]]}},{"type":"Feature","properties":{"code":"24510","nom":"Saint Vincent de Cosse","epci":"CCSPN"},"geometry":{"type":"Polygon","coordinates":[[[1.1141,44.842981],[1.1571,44.842981],[1.1786,44.817],[1.1571,44.791019],[1.1141,44.791019],[1.0926,44.817],[1.1141,44.842981]]]}},{"type":"Feature","properties":{"code":"24512","nom":"Saint Vincent le Paluel","epci":"CCSPN"},"geometry":{"type":"Polygon","coordinates":[[[1.1722,44.876781],[1.2152,44.876781],[1.2367,44.8508],[1.2152,44.824819],[1.1722,44.824819],[1.1507,44.8508],[1.1722,44.876781]]]}},{"type":"Feature","properties":{"code":"24471","nom":"Sainte Nathalène","epci":"CCSPN"},"geometry":{"type":"Polygon","coordinates":[[[1.2018,44.931881],[1.2448,44.931881],[1.2663,44.9059],[1.2448,44.879919],[1.2018,44.879919],[1.1803,44.9059],[1.2018,44.931881]]]}},{"type":"Feature","properties":{"code":"24520","nom":"Sarlat La Canéda","epci":"CCSPN"},"geometry":{"type":"Polygon","coordinates":[[[1.1953,44.917781],[1.2383,44.917781],[1.2598,44.8918],[1.2383,44.865819],[1.1953,44.865819],[1.1738,44.8918],[1.1953,44.917781]]]}},{"type":"Feature","properties":{"code":"24544","nom":"Tamniès","epci":"CCSPN"},"geometry":{"type":"Polygon","coordinates":[[[1.1174,44.950681],[1.1604,44.950681],[1.1819,44.9247],[1.1604,44.898719],[1.1174,44.898719],[1.0959,44.9247],[1.1174,44.950681]]]}},{"type":"Feature","properties":{"code":"24577","nom":"Vézac","epci":"CCSPN"},"geometry":{"type":"Polygon","coordinates":[[[1.1429,44.864181],[1.1859,44.864181],[1.2074,44.8382],[1.1859,44.812219],[1.1429,44.812219],[1.1214,44.8382],[1.1429,44.864181]]]}},{"type":"Feature","properties":{"code":"24587","nom":"Vitrac","epci":"CCSPN"},"geometry":{"type":"Polygon","coordinates":[[[1.1818,44.873181],[1.2248,44.873181],[1.2463,44.8472],[1.2248,44.821219],[1.1818,44.821219],[1.1603,44.8472],[1.1818,44.873181]]]}},{"type":"Feature","properties":{"code":"24014","nom":"Aubas","epci":"CCVV"},"geometry":{"type":"Polygon","coordinates":[[[1.2565,45.047181],[1.2995,45.047181],[1.321,45.0212],[1.2995,44.995219],[1.2565,44.995219],[1.235,45.0212],[1.2565,45.047181]]]}},{"type":"Feature","properties":{"code":"24015","nom":"Audrix","epci":"CCVV"},"geometry":{"type":"Polygon","coordinates":[[[1.0206,44.947381],[1.0636,44.947381],[1.0851,44.9214],[1.0636,44.895419],[1.0206,44.895419],[0.9991,44.9214],[1.0206,44.947381]]]}},{"type":"Feature","properties":{"code":"24067","nom":"Bugue (Le)","epci":"CCVV"},"geometry":{"type":"Polygon","coordinates":[[[0.909,44.945481],[0.952,44.945481],[0.9735,44.9195],[0.952,44.893519],[0.909,44.893519],[0.8875,44.9195],[0.909,44.945481]]]}},{"type":"Feature","properties":{"code":"24076","nom":"Campagne","epci":"CCVV"},"geometry":{"type":"Polygon","coordinates":[[[0.9916,44.933281],[1.0346,44.933281],[1.0561,44.9073],[1.0346,44.881319],[0.9916,44.881319],[0.9701,44.9073],[0.9916,44.933281]]]}},{"type":"Feature","properties":{"code":"24106","nom":"Chapelle Aubareil (La)","epci":"CCVV"},"geometry":{"type":"Polygon","coordinates":[[[1.1672,44.981981],[1.2102,44.981981],[1.2317,44.956],[1.2102,44.930019],[1.1672,44.930019],[1.1457,44.956],[1.1672,44.981981]]]}},{"type":"Feature","properties":{"code":"24127","nom":"Coly - Saint Amand","epci":"CCVV"},"geometry":{"type":"Polygon","coordinates":[[[1.3125,45.073881],[1.3555,45.073881],[1.377,45.0479],[1.3555,45.021919],[1.3125,45.021919],[1.291,45.0479],[1.3125,45.073881]]]}},{"type":"Feature","properties":{"code":"24174","nom":"Fanlac","epci":"CCVV"},"geometry":{"type":"Polygon","coordinates":[[[1.1361,45.018081],[1.1791,45.018081],[1.2006,44.9921],[1.1791,44.966119],[1.1361,44.966119],[1.1146,44.9921],[1.1361,45.018081]]]}},{"type":"Feature","properties":{"code":"24175","nom":"Farges (Les)","epci":"CCVV"},"geometry":{"type":"Polygon","coordinates":[[[1.2512,45.054181],[1.2942,45.054181],[1.3157,45.0282],[1.2942,45.002219],[1.2512,45.002219],[1.2297,45.0282],[1.2512,45.054181]]]}},{"type":"Feature","properties":{"code":"24183","nom":"Fleurac","epci":"CCVV"},"geometry":{"type":"Polygon","coordinates":[[[1.0527,44.996581],[1.0957,44.996581],[1.1172,44.9706],[1.0957,44.944619],[1.0527,44.944619],[1.0312,44.9706],[1.0527,44.996581]]]}},{"type":"Feature","properties":{"code":"24217","nom":"Journiac","epci":"CCVV"},"geometry":{"type":"Polygon","coordinates":[[[1.0012,44.959681],[1.0442,44.959681],[1.0657,44.9337],[1.0442,44.907719],[1.0012,44.907719],[0.9797,44.9337],[1.0012,44.959681]]]}},{"type":"Feature","properties":{"code":"24172","nom":"Les Eyzies","epci":"CCVV"},"geometry":{"type":"Polygon","coordinates":[[[0.9958,44.965681],[1.0388,44.965681],[1.0603,44.9397],[1.0388,44.913719],[0.9958,44.913719],[0.9743,44.9397],[0.9958,44.965681]]]}},{"type":"Feature","properties":{"code":"24240","nom":"Limeuil","epci":"CCVV"},"geometry":{"type":"Polygon","coordinates":[[[0.8683,44.911581],[0.9113,44.911581],[0.9328,44.8856],[0.9113,44.859619],[0.8683,44.859619],[0.8468,44.8856],[0.8683,44.911581]]]}},{"type":"Feature","properties":{"code":"24261","nom":"Mauzens et Miremont","epci":"CCVV"},"geometry":{"type":"Polygon","coordinates":[[[1.0547,44.972781],[1.0977,44.972781],[1.1192,44.9468],[1.0977,44.920819],[1.0547,44.920819],[1.0332,44.9468],[1.0547,44.972781]]]}},{"type":"Feature","properties":{"code":"24291","nom":"Montignac","epci":"CCVV"},"geometry":{"type":"Polygon","coordinates":[[[1.1374,45.091081],[1.1804,45.091081],[1.2019,45.0651],[1.1804,45.039119],[1.1374,45.039119],[1.1159,45.0651],[1.1374,45.091081]]]}},{"type":"Feature","properties":{"code":"24326","nom":"Peyzac le Moustier","epci":"CCVV"},"geometry":{"type":"Polygon","coordinates":[[[1.0654,45.010681],[1.1084,45.010681],[1.1299,44.9847],[1.1084,44.958719],[1.0654,44.958719],[1.0439,44.9847],[1.0654,45.010681]]]}},{"type":"Feature","properties":{"code":"24330","nom":"Plazac","epci":"CCVV"},"geometry":{"type":"Polygon","coordinates":[[[1.0873,45.020281],[1.1303,45.020281],[1.1518,44.9943],[1.1303,44.968319],[1.0873,44.968319],[1.0658,44.9943],[1.0873,45.020281]]]}},{"type":"Feature","properties":{"code":"24356","nom":"Rouffignac Saint Cernin de Reilhac","epci":"CCVV"},"geometry":{"type":"Polygon","coordinates":[[[1.0142,45.031581],[1.0572,45.031581],[1.0787,45.0056],[1.0572,44.979619],[1.0142,44.979619],[0.9927,45.0056],[1.0142,45.031581]]]}},{"type":"Feature","properties":{"code":"24377","nom":"Saint Avit de Vialard","epci":"CCVV"},"geometry":{"type":"Polygon","coordinates":[[[1.0264,44.947181],[1.0694,44.947181],[1.0909,44.9212],[1.0694,44.895219],[1.0264,44.895219],[1.0049,44.9212],[1.0264,44.947181]]]}},{"type":"Feature","properties":{"code":"24388","nom":"Saint Chamassy","epci":"CCVV"},"geometry":{"type":"Polygon","coordinates":[[[0.9525,44.934681],[0.9955,44.934681],[1.017,44.9087],[0.9955,44.882719],[0.9525,44.882719],[0.931,44.9087],[0.9525,44.934681]]]}},{"type":"Feature","properties":{"code":"24404","nom":"Saint Félix de Reilhac et Mortemart","epci":"CCVV"},"geometry":{"type":"Polygon","coordinates":[[[1.0157,44.985781],[1.0587,44.985781],[1.0802,44.9598],[1.0587,44.933819],[1.0157,44.933819],[0.9942,44.9598],[1.0157,44.985781]]]}},{"type":"Feature","properties":{"code":"24443","nom":"Saint Léon sur Vézère","epci":"CCVV"},"geometry":{"type":"Polygon","coordinates":[[[1.1114,45.024481],[1.1544,45.024481],[1.1759,44.9985],[1.1544,44.972519],[1.1114,44.972519],[1.0899,44.9985],[1.1114,45.024481]]]}},{"type":"Feature","properties":{"code":"24524","nom":"Savignac de Miremont","epci":"CCVV"},"geometry":{"type":"Polygon","coordinates":[[[1.0719,44.980081],[1.1149,44.980081],[1.1364,44.9541],[1.1149,44.928119],[1.0719,44.928119],[1.0504,44.9541],[1.0719,44.980081]]]}},{"type":"Feature","properties":{"code":"24531","nom":"Sergeac","epci":"CCVV"},"geometry":{"type":"Polygon","coordinates":[[[1.118,45.055181],[1.161,45.055181],[1.1825,45.0292],[1.161,45.003219],[1.118,45.003219],[1.0965,45.0292],[1.118,45.055181]]]}},{"type":"Feature","properties":{"code":"24552","nom":"Thonac","epci":"CCVV"},"geometry":{"type":"Polygon","coordinates":[[[1.1215,45.044681],[1.1645,45.044681],[1.186,45.0187],[1.1645,44.992719],[1.1215,44.992719],[1.1,45.0187],[1.1215,45.044681]]]}},{"type":"Feature","properties":{"code":"24559","nom":"Tursac","epci":"CCVV"},"geometry":{"type":"Polygon","coordinates":[[[1.0397,45.000681],[1.0827,45.000681],[1.1042,44.9747],[1.0827,44.948719],[1.0397,44.948719],[1.0182,44.9747],[1.0397,45.000681]]]}},{"type":"Feature","properties":{"code":"24563","nom":"Valojoulx","epci":"CCVV"},"geometry":{"type":"Polygon","coordinates":[[[1.1804,45.027881],[1.2234,45.027881],[1.2449,45.0019],[1.2234,44.975919],[1.1804,44.975919],[1.1589,45.0019],[1.1804,45.027881]]]}},{"type":"Feature","properties":{"code":"24012","nom":"Archignac","epci":"CCPF"},"geometry":{"type":"Polygon","coordinates":[[[1.2764,44.973381],[1.3194,44.973381],[1.3409,44.9474],[1.3194,44.921419],[1.2764,44.921419],[1.2549,44.9474],[1.2764,44.973381]]]}},{"type":"Feature","properties":{"code":"24050","nom":"Borrèze","epci":"CCPF"},"geometry":{"type":"Polygon","coordinates":[[[1.3704,44.947381],[1.4134,44.947381],[1.4349,44.9214],[1.4134,44.895419],[1.3704,44.895419],[1.3489,44.9214],[1.3704,44.947381]]]}},{"type":"Feature","properties":{"code":"24074","nom":"Calviac en Périgord","epci":"CCPF"},"geometry":{"type":"Polygon","coordinates":[[[1.204,44.860381],[1.247,44.860381],[1.2685,44.8344],[1.247,44.808419],[1.204,44.808419],[1.1825,44.8344],[1.204,44.860381]]]}},{"type":"Feature","properties":{"code":"24081","nom":"Carlux","epci":"CCPF"},"geometry":{"type":"Polygon","coordinates":[[[1.2598,44.877081],[1.3028,44.877081],[1.3243,44.8511],[1.3028,44.825119],[1.2598,44.825119],[1.2383,44.8511],[1.2598,44.877081]]]}},{"type":"Feature","properties":{"code":"24082","nom":"Carsac Aillac","epci":"CCPF"},"geometry":{"type":"Polygon","coordinates":[[[1.204,44.866681],[1.247,44.866681],[1.2685,44.8407],[1.247,44.814719],[1.204,44.814719],[1.1825,44.8407],[1.204,44.866681]]]}},{"type":"Feature","properties":{"code":"24215","nom":"Jayac","epci":"CCPF"},"geometry":{"type":"Polygon","coordinates":[[[1.2827,44.927381],[1.3257,44.927381],[1.3472,44.9014],[1.3257,44.875419],[1.2827,44.875419],[1.2612,44.9014],[1.2827,44.927381]]]}},{"type":"Feature","properties":{"code":"24301","nom":"Nadaillac","epci":"CCPF"},"geometry":{"type":"Polygon","coordinates":[[[1.3219,44.999781],[1.3649,44.999781],[1.3864,44.9738],[1.3649,44.947819],[1.3219,44.947819],[1.3004,44.9738],[1.3219,44.999781]]]}},{"type":"Feature","properties":{"code":"24317","nom":"Paulin","epci":"CCPF"},"geometry":{"type":"Polygon","coordinates":[[[1.3138,44.964481],[1.3568,44.964481],[1.3783,44.9385],[1.3568,44.912519],[1.3138,44.912519],[1.2923,44.9385],[1.3138,44.964481]]]}},{"type":"Feature","properties":{"code":"24314","nom":"Pechs de l'Espérance","epci":"CCPF"},"geometry":{"type":"Polygon","coordinates":[[[1.2397,44.902381],[1.2827,44.902381],[1.3042,44.8764],[1.2827,44.850419],[1.2397,44.850419],[1.2182,44.8764],[1.2397,44.902381]]]}},{"type":"Feature","properties":{"code":"24336","nom":"Prats de Carlux","epci":"CCPF"},"geometry":{"type":"Polygon","coordinates":[[[1.2786,44.877881],[1.3216,44.877881],[1.3431,44.8519],[1.3216,44.825919],[1.2786,44.825919],[1.2571,44.8519],[1.2786,44.877881]]]}},{"type":"Feature","properties":{"code":"24392","nom":"Saint Crépin et Carlucet","epci":"CCPF"},"geometry":{"type":"Polygon","coordinates":[[[1.295,44.902281],[1.338,44.902281],[1.3595,44.8763],[1.338,44.850319],[1.295,44.850319],[1.2735,44.8763],[1.295,44.902281]]]}},{"type":"Feature","properties":{"code":"24412","nom":"Saint Geniès","epci":"CCPF"},"geometry":{"type":"Polygon","coordinates":[[[1.2907,45.001581],[1.3337,45.001581],[1.3552,44.9756],[1.3337,44.949619],[1.2907,44.949619],[1.2692,44.9756],[1.2907,45.001581]]]}},{"type":"Feature","properties":{"code":"24432","nom":"Saint Julien de Lampon","epci":"CCPF"},"geometry":{"type":"Polygon","coordinates":[[[1.2672,44.844681],[1.3102,44.844681],[1.3317,44.8187],[1.3102,44.792719],[1.2672,44.792719],[1.2457,44.8187],[1.2672,44.844681]]]}},{"type":"Feature","properties":{"code":"24470","nom":"Sainte Mondane","epci":"CCPF"},"geometry":{"type":"Polygon","coordinates":[[[1.2095,44.837681],[1.2525,44.837681],[1.274,44.8117],[1.2525,44.785719],[1.2095,44.785719],[1.188,44.8117],[1.2095,44.837681]]]}},{"type":"Feature","properties":{"code":"24516","nom":"Salignac Eyvigues","epci":"CCPF"},"geometry":{"type":"Polygon","coordinates":[[[1.3052,44.966081],[1.3482,44.966081],[1.3697,44.9401],[1.3482,44.914119],[1.3052,44.914119],[1.2837,44.9401],[1.3052,44.966081]]]}},{"type":"Feature","properties":{"code":"24535","nom":"Simeyrols","epci":"CCPF"},"geometry":{"type":"Polygon","coordinates":[[[1.2172,44.876881],[1.2602,44.876881],[1.2817,44.8509],[1.2602,44.824919],[1.2172,44.824919],[1.1957,44.8509],[1.2172,44.876881]]]}},{"type":"Feature","properties":{"code":"24574","nom":"Veyrignac","epci":"CCPF"},"geometry":{"type":"Polygon","coordinates":[[[1.2254,44.846481],[1.2684,44.846481],[1.2899,44.8205],[1.2684,44.794519],[1.2254,44.794519],[1.2039,44.8205],[1.2254,44.846481]]]}}]}